NORAD_CAT_ID,OBJECT_NAME,OBJECT_TYPE,EPOCH,MEAN_MOTION,ECCENTRICITY,INCLINATION,RA_OF_ASC_NODE,ARG_OF_PERICENTER,MEAN_ANOMALY,BSTAR,MEAN_MOTION_DOT,MEAN_MOTION_DDOT,TLE_LINE0,TLE_LINE1,TLE_LINE2,SEMIMAJOR_AXIS,PERIOD,APOGEE,PERIGEE,DECAYED
50198.0,STARLINK-3264,PAYLOAD,2022-10-16 17:31:09,15.08841558,0.0001875,53.2177,45.5219,48.507,311.6083,-6.9961e-06,-4e-06,0.0,0 STARLINK-3264,1 50198U 21125AU  22289.72997269 -.00000400  00000-0 -69961-5 0  9990,2 50198  53.2177  45.5219 0001875  48.5070 311.6083 15.08841558 49540,6917.876,95.437,541.038,538.444,0.0
50198.0,STARLINK-3264,PAYLOAD,2022-10-17 12:35:47,15.08841913,0.0001978,53.2173,41.9534,50.5044,309.6123,7.9479e-05,9.77e-06,0.0,0 STARLINK-3264,1 50198U 21125AU  22290.52485096  .00000977  00000-0  79479-4 0  9991,2 50198  53.2173  41.9534 0001978  50.5044 309.6123 15.08841913 49181,6917.875,95.437,541.1080000000002,538.371,0.0
50198.0,STARLINK-3264,PAYLOAD,2022-10-17 14:11:10,15.08840891,0.0001838,53.2178,41.6558,49.2331,310.882,0.00011645,1.566e-05,0.0,0 STARLINK-3264,1 50198U 21125AU  22290.59108994  .00001566  00000-0  11645-3 0  9992,2 50198  53.2178  41.6558 0001838  49.2331 310.8820 15.08840891 49674,6917.878000000002,95.437,541.014,538.471,0.0
50198.0,STARLINK-3264,PAYLOAD,2022-10-18 06:05:02,15.08833204,0.0001947,53.2177,38.6835,44.6424,315.4724,0.0001035,1.359e-05,0.0,0 STARLINK-3264,1 50198U 21125AU  22291.25349669  .00001359  00000-0  10350-3 0  9994,2 50198  53.2177  38.6835 0001947  44.6424 315.4724 15.08833204 49292,6917.901,95.438,541.113,538.419,0.0
50198.0,STARLINK-3264,PAYLOAD,2022-10-18 14:01:59,15.0882032,0.0001824,53.2177,37.1956,37.8802,322.2319,-2.0791e-05,-6.19e-06,0.0,0 STARLINK-3264,1 50198U 21125AU  22291.58471094 -.00000619  00000-0 -20791-4 0  9999,2 50198  53.2177  37.1956 0001824  37.8802 322.2319 15.08820320 49345,6917.941,95.439,541.067,538.544,0.0
50198.0,STARLINK-3264,PAYLOAD,2022-10-19 10:41:59,15.08836613,0.000187,53.2178,33.331,36.8953,323.2167,-3.4038e-06,-3.42e-06,0.0,0 STARLINK-3264,1 50198U 21125AU  22292.44582550 -.00000342  00000-0 -34038-5 0  9998,2 50198  53.2178  33.3310 0001870  36.8953 323.2167 15.08836613 49473,6917.891,95.438,541.049,538.462,0.0
50198.0,STARLINK-3264,PAYLOAD,2022-10-19 15:28:07,15.08848209,0.0001919,53.2177,32.4392,35.3771,324.7348,9.9179e-05,1.291e-05,0.0,0 STARLINK-3264,1 50198U 21125AU  22292.64453652  .00001291  00000-0  99179-4 0  9998,2 50198  53.2177  32.4392 0001919  35.3771 324.7348 15.08848209 49985,6917.855,95.437,541.048,538.393,0.0
50198.0,STARLINK-3264,PAYLOAD,2022-10-20 05:46:36,15.08833671,0.0001796,53.2168,29.7617,38.7335,321.3786,0.00019554,2.825e-05,0.0,0 STARLINK-3264,1 50198U 21125AU  22293.24070121  .00002825  00000-0  19554-3 0  9993,2 50198  53.2168  29.7617 0001796  38.7335 321.3786 15.08833671 49593,6917.9,95.438,541.007,538.5219999999998,0.0
50198.0,STARLINK-3264,PAYLOAD,2022-10-20 13:43:32,15.08828517,0.0002041,53.2177,28.275,33.2664,326.8456,0.00013446,1.852e-05,0.0,0 STARLINK-3264,1 50198U 21125AU  22293.57190807  .00001852  00000-0  13446-3 0  9996,2 50198  53.2177  28.2750 0002041  33.2664 326.8456 15.08828517 50122,6917.915,95.438,541.192,538.369,0.0
50198.0,STARLINK-3264,PAYLOAD,2022-10-20 16:54:19,15.0882581,0.0002075,53.2176,27.6805,33.689,326.4234,0.00011518,1.545e-05,0.0,0 STARLINK-3264,1 50198U 21125AU  22293.70439295  .00001545  00000-0  11518-3 0  9995,2 50198  53.2176  27.6805 0002075  33.6890 326.4234 15.08825810 50142,6917.924,95.438,541.224,538.3530000000002,0.0
50198.0,STARLINK-3264,PAYLOAD,2022-10-20 23:15:51,15.0883486,0.0002015,53.2194,26.4929,41.721,318.3935,8.1045e-05,1.002e-05,0.0,0 STARLINK-3264,1 50198U 21125AU  22293.96934765  .00001002  00000-0  81045-4 0  9996,2 50198  53.2194  26.4929 0002015  41.7210 318.3935 15.08834860 49709,6917.896,95.438,541.155,538.367,0.0
50198.0,STARLINK-3264,PAYLOAD,2022-10-21 10:23:33,15.08845215,0.0002203,53.2195,24.4114,33.8791,326.2342,-4.5646e-05,-1.015e-05,0.0,0 STARLINK-3264,1 50198U 21125AU  22294.43302709 -.00001015  00000-0 -45646-4 0  9999,2 50198  53.2195  24.4114 0002203  33.8791 326.2342 15.08845215 50257,6917.864000000001,95.437,541.253,538.205,0.0
50198.0,STARLINK-3264,PAYLOAD,2022-10-21 15:09:42,15.08841398,0.0002059,53.2183,23.5187,39.3514,320.7628,-4.4385e-06,-3.59e-06,0.0,0 STARLINK-3264,1 50198U 21125AU  22294.63174755 -.00000359  00000-0 -44385-5 0  9999,2 50198  53.2183  23.5187 0002059  39.3514 320.7628 15.08841398 50284,6917.876,95.437,541.1659999999998,538.317,0.0
50198.0,STARLINK-3264,PAYLOAD,2022-10-22 13:25:06,15.08842275,0.0002073999999999,53.2181,19.3556,38.632,321.482,2.5685e-05,1.21e-06,0.0,0 STARLINK-3264,1 50198U 21125AU  22295.55910506  .00000121  00000-0  25685-4 0  9999,2 50198  53.2181  19.3556 0002074  38.6320 321.4820 15.08842275 49947,6917.873000000001,95.437,541.173,538.304,0.0
50198.0,STARLINK-3264,PAYLOAD,2022-10-22 15:00:29,15.0884542,0.0002061,53.218,19.0581,38.0399,322.0738,3.6443e-05,2.92e-06,0.0,0 STARLINK-3264,1 50198U 21125AU  22295.62534257  .00000292  00000-0  36443-4 0  9995,2 50198  53.2180  19.0581 0002061  38.0399 322.0738 15.08845420 50433,6917.864000000001,95.437,541.155,538.303,0.0
50198.0,STARLINK-3264,PAYLOAD,2022-10-23 05:18:57,15.08852264,0.0002041,53.2177,16.382,38.3576,321.7561,0.00014798,2.068e-05,0.0,0 STARLINK-3264,1 50198U 21125AU  22296.22149328  .00002068  00000-0  14798-3 0  9994,2 50198  53.2177  16.3820 0002041  38.3576 321.7561 15.08852264 50044,6917.843000000003,95.437,541.12,538.2959999999998,0.0
50198.0,STARLINK-3264,PAYLOAD,2022-10-23 11:40:29,15.08850775,0.0001983,53.2177,15.1916,38.4355,321.6778,0.00017179,2.448e-05,0.0,0 STARLINK-3264,1 50198U 21125AU  22296.48645278  .00002448  00000-0  17179-3 0  9995,2 50198  53.2177  15.1916 0001983  38.4355 321.6778 15.08850775 50568,6917.847,95.437,541.0840000000002,538.341,0.0
50198.0,STARLINK-3264,PAYLOAD,2022-10-23 14:51:15,15.08855992,0.0002009999999999,53.2177,14.5969,38.8054,321.3082,0.00017545,2.506e-05,0.0,0 STARLINK-3264,1 50198U 21125AU  22296.61892887  .00002506  00000-0  17545-3 0  9992,2 50198  53.2177  14.5969 0002010  38.8054 321.3082 15.08855992 50584,6917.831999999999,95.437,541.087,538.306,0.0
50198.0,STARLINK-3264,PAYLOAD,2022-10-24 11:31:17,15.08834966,0.0002142,53.2177,10.732,39.788,320.3269,-0.0001059,-1.973e-05,0.0,0 STARLINK-3264,1 50198U 21125AU  22297.48005848 -.00001973  00000-0 -10590-3 0  9993,2 50198  53.2177  10.7320 0002142  39.7880 320.3269 15.08834966 50715,6917.896,95.438,541.243,538.279,0.0
50198.0,STARLINK-3264,PAYLOAD,2022-10-25 05:00:33,15.08818299,0.0002125,53.2177,7.4604,38.1572,321.9571,-0.00022761,-3.907e-05,0.0,0 STARLINK-3264,1 50198U 21125AU  22298.20872365 -.00003907  00000-0 -22761-3 0  9992,2 50198  53.2177   7.4604 0002125  38.1572 321.9571 15.08818299 50348,6917.946999999999,95.439,541.2819999999998,538.342,0.0
50198.0,STARLINK-3264,PAYLOAD,2022-10-25 09:46:42,15.08827081,0.0002535,53.2186,6.5708,42.4471,317.6717,-0.00013062,-2.366e-05,0.0,0 STARLINK-3264,1 50198U 21125AU  22298.40743835 -.00002366  00000-0 -13062-3 0  9995,2 50198  53.2186   6.5708 0002535  42.4471 317.6717 15.08827081 50370,6917.92,95.438,541.539,538.031,0.0
50198.0,STARLINK-3264,PAYLOAD,2022-10-25 11:22:05,15.08834926,0.0002139,53.2177,6.2714,39.2521,320.8626,-6.3638e-05,-1.301e-05,0.0,0 STARLINK-3264,1 50198U 21125AU  22298.47367064 -.00001301  00000-0 -63638-4 0  9991,2 50198  53.2177   6.2714 0002139  39.2521 320.8626 15.08834926 50386,6917.896,95.438,541.241,538.281,0.0
50198.0,STARLINK-3264,PAYLOAD,2022-10-26 04:51:22,15.08794937,0.0002190999999999,53.2186,3.0003,5.5917,354.5099,-0.00021721,-3.739e-05,0.0,0 STARLINK-3264,1 50198U 21125AU  22299.20233900 -.00003739  00000-0 -21721-3 0  9997,2 50198  53.2186   3.0003 0002191   5.5917 354.5099 15.08794937 50492,6918.018,95.44,541.399,538.367,0.0
50198.0,STARLINK-3264,PAYLOAD,2022-10-26 11:12:54,15.08810686,0.0002225,53.2182,1.812,34.8365,325.2772,-4.248e-05,-9.64e-06,0.0,0 STARLINK-3264,1 50198U 21125AU  22299.46729360 -.00000964  00000-0 -42480-4 0  9998,2 50198  53.2182   1.8120 0002225  34.8365 325.2772 15.08810686 50532,6917.97,95.439,541.374,538.2959999999998,0.0
50198.0,STARLINK-3264,PAYLOAD,2022-10-26 12:48:16,15.08816124,0.0001998,53.2187,1.513,48.4872,311.6292,-1.3009e-05,-4.95e-06,0.0,0 STARLINK-3264,1 50198U 21125AU  22299.53352939 -.00000495  00000-0 -13009-4 0  9994,2 50198  53.2187   1.5130 0001998  48.4872 311.6292 15.08816124 50545,6917.953,95.439,541.201,538.436,0.0
50198.0,STARLINK-3264,PAYLOAD,2022-10-26 20:45:13,15.08811893,0.0002205,53.2189,0.0259,44.6593,315.4576,5.813899999999999e-05,6.36e-06,0.0,0 STARLINK-3264,1 50198U 21125AU  22299.86473642  .00000636  00000-0  58139-4 0  9993,2 50198  53.2189   0.0259 0002205  44.6593 315.4576 15.08811893 51077,6917.965999999999,95.439,541.357,538.306,0.0
50198.0,STARLINK-3264,PAYLOAD,2022-10-27 03:06:45,15.08832399,0.0002145,53.2176,358.8376,40.2069,319.9081,0.00010966,1.457e-05,0.0,0 STARLINK-3264,1 50198U 21125AU  22300.12968785  .00001457  00000-0  10966-3 0  9999,2 50198  53.2176 358.8376 0002145  40.2069 319.9081 15.08832399 50635,6917.904,95.438,541.253,538.285,0.0
50198.0,STARLINK-3264,PAYLOAD,2022-10-27 11:03:40,15.08842384,0.0002169,53.2176,357.3511,41.6209,318.4948,0.00019215,2.771e-05,0.0,0 STARLINK-3264,1 50198U 21125AU  22300.46088135  .00002771  00000-0  19215-3 0  9994,2 50198  53.2176 357.3511 0002169  41.6209 318.4948 15.08842384 51167,6917.873000000001,95.437,541.239,538.238,0.0
50198.0,STARLINK-3264,PAYLOAD,2022-10-28 02:57:30,15.08836481,0.0002133999999999,53.2177,354.3771,45.3635,314.7531,0.00056844,8.769e-05,0.0,0 STARLINK-3264,1 50198U 21125AU  22301.12327414  .00008769  00000-0  56844-3 0  9996,2 50198  53.2177 354.3771 0002134  45.3635 314.7531 15.08836481 50784,6917.891,95.438,541.232,538.28,0.0
